#aV2020  9 17  0  0  0.00000000     288 DD+AD WGS84 FIT  NGA
## 2123 345600.00000000   300.00000000 59109 0.0000000000000
+   31     1  2  3  4  5  6  7  8  9 10 11 12 13 15 16 17 18
+         19 20 21 22 23 24 25 26 27 28 29 30 31 32  0  0  0
+          0  0  0  0  0  0  0  0  0  0  0  0  0  0  0  0  0
+          0  0  0  0  0  0  0  0  0  0  0  0  0  0  0  0  0
+          0  0  0  0  0  0  0  0  0  0  0  0  0  0  0  0  0
++         2  2  2  2  2  2  2  2  2  2  2  2  2  2  2  2  2
++         2  2  2  2  2  2  2  2  2  2  2  2  2  2  0  0  0
++         0  0  0  0  0  0  0  0  0  0  0  0  0  0  0  0  0
++         0  0  0  0  0  0  0  0  0  0  0  0  0  0  0  0  0
++         0  0  0  0  0  0  0  0  0  0  0  0  0  0  0  0  0
%c cc cc ccc ccc cccc cccc cccc cccc ccccc ccccc ccccc ccccc
%c cc cc ccc ccc cccc cccc cccc cccc ccccc ccccc ccccc ccccc
%f  0.0000000  0.000000000  0.00000000000  0.000000000000000
%f  0.0000000  0.000000000  0.00000000000  0.000000000000000
%i    0    0    0    0      0      0      0      0         0
%i    0    0    0    0      0      0      0      0         0
/*      NGA, ST. LOUIS,MO.                                  
/*   EPHEMERIS COMPUTED FROM 2 DAYS OF DATA                 
/*   EPOCHA v5 SMOOTHER                                     
/*   G1762 IERS2010 SATAF SATAPC                            
*  2020  9 17  3  5  0.00000000
P  1 -16492.707299 -14002.034393 -15864.454232     35.944246                    
V  1  19415.927920   2496.600773 -22410.528017     -0.004726                    
P  2  -5869.113143  14773.445071  21921.069084   -517.468257                    
V  2 -26117.923056  -3351.978622  -4910.790133     -0.051685                    
P  3 -12837.752024 -22276.532726   6795.915351   -301.217137                    
V  3   -597.081542  -9019.710383 -30238.280632     -0.106247                    
P  4  -8763.303243 -12774.680691  21577.962450   -136.742033                    
V  4  18755.091644 -19960.747895  -4238.452398     -0.041096                    
P  5     67.586325  23529.359607  11981.865336    -21.271820                    
V  5  -8192.954303 -13480.140880  26371.730883     -0.008705                    
P  6 -20095.792514   7117.822824  15915.599230   -326.293749                    
V  6 -19453.834242  -5102.017437 -22317.094309     -0.032542                    
P  7 -26097.387942  -6127.772646   1392.349168   -374.139382                    
V  7   1842.337393  -2337.794238  31188.839524     -0.081780                    
P  8    589.673706 -19710.863434 -17653.962280    -48.247292                    
V  8  15632.018775 -16291.625274  18956.290577     -0.013849                    
P  9 -17507.080447   -997.621342  19896.507599   -287.140074                    
V  9  15270.997176 -20342.904643  12366.449957     -0.056021                    
P 10  14371.458501  -4498.107384 -21793.314236   -456.582155                    
V 10   9404.146399  26227.463599    539.633708     -0.098334                    
P 11  -6710.163298 -15105.958308 -21246.573326   -162.223839                    
V 11  24885.807664  -7949.643013  -2616.695572      0.105832                    
P 12  10279.975258  23956.286982   5250.396257     66.215664                    
V 12   -245.212939   7252.298768 -31078.411360     -0.050299                    
P 13 -10065.822911  20984.699163 -12821.830335     46.007197                    
V 13 -13377.472377   9218.468376  25949.764195      0.035961                    
P 15   2785.458369  19605.285666 -17864.854451   -203.154052                    
V 15 -14395.431682  17135.883364  17257.483403      0.026022                    
P 16    856.640506 -24219.495727  10101.530791   -210.131435                    
V 16   5657.221889  12257.715062  28737.923273     -0.050744                    
P 17 -20857.034839  14172.552781  -7845.240610    327.007330                    
V 17   5808.509409  -9030.718747 -30166.579379      0.054662                    
P 18  26031.178806   5403.694237    -81.740681    291.565537                    
V 18   -458.116191   2615.160129  31813.955672      0.069389                    
P 19 -19954.286016  17419.442131  -1671.877992   -103.870841                    
V 19   -219.145403  -2794.711201 -32175.237482      0.050632                    
P 20  18540.453450   7408.522971 -17709.184692    526.711622                    
V 20   8573.447558  20701.992926  17468.330593     -0.001191                    
P 21   7411.349133 -13868.342577 -20633.715117     47.961184                    
V 21  27699.715087   4109.713265   7253.640386      0.041847                    
P 22 -10369.359769 -24510.939911  -1058.909867   -753.620256                    
V 22   3936.339147    -68.959296 -30960.149343      0.040150                    
P 23  16949.046332   6195.688359 -19523.527804     67.972236                    
V 23   7658.656955  23533.948448  14125.280349      0.083942                    
P 24  14078.850116  14667.696584 -17488.512941    -18.631324                    
V 24 -21802.774447   -782.454942 -18048.412368     -0.004640                    
P 25  16054.720838  15475.817014  14388.706013     50.209109                    
V 25   4350.527923  18157.708027 -23732.820757      0.054610                    
P 26   8783.786821 -15808.835979  19342.675373    280.100677                    
V 26  10570.551391  22444.005989  13752.214047      0.064199                    
P 27  10627.753186 -22283.834768  -9472.894292   -397.387262                    
V 27   9463.238777  -7573.905053  29204.287876     -0.089241                    
P 28 -13621.892157   5586.312501 -21534.029169    677.925379                    
V 28  -7140.234190 -27793.812981  -2475.686396     -0.041707                    
P 29  14997.323668   4912.080320  21332.530015   -196.369595                    
V 29 -18639.980030  19678.199652   8511.400016     -0.080940                    
P 30 -25116.630154   1160.897053  -8836.802599   -303.180074                    
V 30 -10353.253731  -5400.616067  28331.179692     -0.071124                    
P 31  19036.918846  -8097.013417  16860.480553    -69.183782                    
V 31  20537.645421   6004.971604 -19791.500915     -0.024017                    
P 32  20073.578297 -15422.301696  -7695.170193    347.196877                    
V 32  -4198.019054   9448.258970 -29710.137102      0.046912                    
EOF
